     2.100          NAVIGATION                              RINEX VERSION / TYPE
fic2rin                                 01/27/2013 00:14:40 PGM / RUN BY / DATE
                                                            END OF HEADER
11 13  1 26 22  0  0.0 -.347415450960D-03 -.375166564481D-11  .000000000000D+00
     .590000000000D+02  .437500000000D+00  .602489381815D-08  .117326986559D+01
     .372529029846D-08  .138181761140D-01  .108387321234D-04  .515368877602D+04
     .597600000000D+06 -.270083546638D-06  .499417880336D+00 -.149011611938D-07
     .888938661326D+00  .134312500000D+03  .114127257319D+01 -.885894043900D-08
     .430017911972D-09  .100000000000D+01  .172400000000D+04  .000000000000D+00
     .240000000000D+01  .000000000000D+00 -.116415321827D-07  .590000000000D+02
     .590406000000D+06  .400000000000D+01
12 13  1 26 22  0  0.0  .114517752081D-03  .204636307899D-11  .000000000000D+00
     .470000000000D+02 -.340000000000D+02  .440304054717D-08  .701721528490D+00
    -.181607902050D-05  .422702217475D-02  .922009348869D-06  .515363246536D+04
     .597600000000D+06  .391155481339D-07 -.127706114864D+01  .102445483208D-06
     .982435192358D+00  .370968750000D+03  .142795866741D+00 -.836606276581D-08
    -.225009372544D-09  .100000000000D+01  .172400000000D+04  .000000000000D+00
     .240000000000D+01  .000000000000D+00 -.121071934700D-07  .470000000000D+02
     .590406000000D+06  .400000000000D+01
13 13  1 26 22  0  0.0  .149506609887D-03 -.284217094304D-11  .000000000000D+00
     .350000000000D+02  .274687500000D+02  .389909098422D-08 -.285973482247D+01
     .146962702274D-05  .493937579449D-02  .115931034088D-04  .515356497765D+04
     .597600000000D+06  .279396772385D-07  .298020701576D+01  .949949026108D-07
     .983251020809D+00  .169281250000D+03  .206694750813D+01 -.747674000766D-08
    -.356800576462D-09  .100000000000D+01  .172400000000D+04  .000000000000D+00
     .240000000000D+01  .000000000000D+00 -.111758708954D-07  .350000000000D+02
     .590406000000D+06  .400000000000D+01
14 13  1 26 22  0  0.0  .219986774027D-03  .341060513165D-12  .000000000000D+00
     .720000000000D+02  .132187500000D+02  .399445209925D-08 -.272213986650D+01
     .812113285065D-06  .669631711207D-02  .118110328913D-04  .515370455360D+04
     .597600000000D+06  .856816768646D-07  .295182787379D+01 -.484287738800D-07
     .975956833731D+00  .157562500000D+03 -.201888663498D+01 -.752852787912D-08
    -.422160441820D-09  .100000000000D+01  .172400000000D+04  .000000000000D+00
     .340000000000D+01  .000000000000D+00 -.884756445885D-08  .720000000000D+02
     .590406000000D+06  .400000000000D+01
15 13  1 26 22  0  0.0 -.106376130134D-03 -.113686837722D-11  .000000000000D+00
     .520000000000D+02  .843750000000D+00  .485234497679D-08  .309484796637D+01
     .819563865662D-07  .527446810156D-02  .118240714073D-04  .515370674324D+04
     .597600000000D+06 -.819563865662D-07  .285601951233D+01 -.447034835815D-07
     .942561310559D+00  .141718750000D+03  .122481237698D+00 -.794318800852D-08
    -.529664919813D-09  .100000000000D+01  .172400000000D+04  .000000000000D+00
     .240000000000D+01  .000000000000D+00 -.102445483208D-07  .520000000000D+02
     .590406000000D+06  .400000000000D+01
16 13  1 26 22  0  0.0 -.252044294029D-03 -.227373675443D-12  .000000000000D+00
     .820000000000D+02 -.406875000000D+02  .422874757288D-08 -.153603492675D+01
    -.213459134102D-05  .686911109369D-02  .158697366714D-05  .515357096291D+04
     .597600000000D+06 -.931322574615D-08 -.125873612183D+01 -.894069671631D-07
     .983178717546D+00  .361687500000D+03  .287644277767D-01 -.820462746995D-08
    -.102861427448D-09  .100000000000D+01  .172400000000D+04  .000000000000D+00
     .240000000000D+01  .000000000000D+00 -.977888703346D-08  .820000000000D+02
     .590406000000D+06  .400000000000D+01
17 13  1 26 22  0  0.0  .558095052838D-04 -.375166564481D-11  .000000000000D+00
     .330000000000D+02 -.117125000000D+03  .392694928749D-08 -.256031891252D+01
    -.602751970291D-05  .806611438747D-02  .110082328320D-04  .515380010033D+04
     .597600000000D+06  .298023223877D-07 -.220467266821D+00 -.726431608200D-07
     .964988624450D+00  .167156250000D+03 -.225013670231D+01 -.764353266953D-08
    -.414302971667D-10  .100000000000D+01  .172400000000D+04  .000000000000D+00
     .240000000000D+01  .000000000000D+00 -.107102096081D-07  .330000000000D+02
     .590406000000D+06  .400000000000D+01
18 13  1 26 22  0  0.0  .236336607486D-03  .181898940355D-11  .000000000000D+00
     .280000000000D+02 -.987500000000D+01  .587560188526D-08 -.104685927967D+01
    -.223517417908D-06  .136902033119D-01  .409968197346D-05  .515374846458D+04
     .597600000000D+06  .141561031342D-06  .183839339987D+01  .324100255966D-06
     .927502855474D+00  .281375000000D+03 -.212964280810D+01 -.877750847560D-08
    -.946467995620D-10  .100000000000D+01  .172400000000D+04  .000000000000D+00
     .240000000000D+01  .000000000000D+00 -.107102096081D-07  .280000000000D+02
     .590406000000D+06  .400000000000D+01
19 13  1 26 22  0  0.0 -.343294348568D-03 -.329691829393D-11  .000000000000D+00
     .440000000000D+02 -.984062500000D+02  .406409785742D-08  .303822310495D+01
    -.504963099957D-05  .885319581721D-02  .104382634163D-04  .515366934776D+04
     .597600000000D+06 -.726431608200D-07 -.168190930856D+00 -.484287738800D-07
     .962285517569D+00  .180031250000D+03  .276492854089D+00 -.771639284731D-08
    -.257153568621D-10  .100000000000D+01  .172400000000D+04  .000000000000D+00
     .240000000000D+01  .000000000000D+00 -.144354999065D-07  .440000000000D+02
     .590406000000D+06  .400000000000D+01
20 13  1 26 22  0  0.0  .816001556814D-04  .147792889038D-11  .000000000000D+00
     .780000000000D+02 -.946875000000D+01  .587524472753D-08 -.461854543056D+00
    -.501051545143D-06  .557482638396D-02  .431388616562D-05  .515380856705D+04
     .597600000000D+06 -.428408384323D-07  .178480627029D+01  .279396772385D-07
     .928155902105D+00  .284125000000D+03  .128262976240D+01 -.880465246340D-08
    -.435732435719D-10  .100000000000D+01  .172400000000D+04  .000000000000D+00
     .240000000000D+01  .000000000000D+00 -.791624188423D-08  .780000000000D+02
     .590406000000D+06  .400000000000D+01
21 13  1 26 22  0  0.0 -.276946462691D-03 -.227373675443D-11  .000000000000D+00
     .220000000000D+02  .252500000000D+02  .529557772493D-08  .553249797075D-01
     .151433050632D-05  .197212322382D-01  .911206007004D-05  .515373718452D+04
     .597600000000D+06 -.912696123123D-07  .789339380274D+00  .312924385071D-06
     .931579564897D+00  .192500000000D+03 -.218327287579D+01 -.861785896842D-08
     .616097091488D-09  .100000000000D+01  .172400000000D+04  .000000000000D+00
     .240000000000D+01  .000000000000D+00 -.111758708954D-07  .220000000000D+02
     .590406000000D+06  .400000000000D+01
22 13  1 26 22  0  0.0  .156763009727D-03  .113686837722D-11  .000000000000D+00
     .750000000000D+02 -.127187500000D+02  .582845706435D-08 -.169340909107D+01
    -.599771738052D-06  .617234979291D-02  .390224158764D-05  .515365075493D+04
     .597600000000D+06  .128522515297D-06  .184125388163D+01  .521540641785D-07
     .925243224894D+00  .282375000000D+03 -.203204805836D+01 -.863857411700D-08
    -.492877673191D-10  .100000000000D+01  .172400000000D+04  .000000000000D+00
     .340000000000D+01  .000000000000D+00 -.172294676304D-07  .750000000000D+02
     .590406000000D+06  .400000000000D+01
23 13  1 26 22  0  0.0  .119989737868D-03 -.375166564481D-11  .000000000000D+00
     .410000000000D+02  .681250000000D+01  .446375736198D-08  .260563054274D+01
     .385567545891D-06  .816158985253D-02  .112447887659D-04  .515376460266D+04
     .597600000000D+06 -.156462192535D-06  .289534928077D+01 -.130385160446D-07
     .957468311198D+00  .163875000000D+03 -.291757435501D+01 -.777103798064D-08
    -.423231915022D-09  .100000000000D+01  .172400000000D+04  .000000000000D+00
     .240000000000D+01  .000000000000D+00 -.204890966415D-07  .410000000000D+02
     .590406000000D+06  .400000000000D+01
24 13  1 26 22  0  0.0 -.651925802231D-08 -.568434188608D-12  .000000000000D+00
     .580000000000D+02  .134468750000D+03  .453233164695D-08  .203078149900D+01
     .703893601894D-05  .576617661864D-03  .747852027416D-05  .515371243477D+04
     .597600000000D+06  .484287738800D-07 -.236187928306D+01  .558793544769D-07
     .959456754802D+00  .233187500000D+03  .405142288374D-02 -.817569769348D-08
     .287869133762D-09  .100000000000D+01  .172400000000D+04  .000000000000D+00
     .240000000000D+01  .000000000000D+00  .419095158577D-08  .580000000000D+02
     .590406000000D+06  .400000000000D+01
25 13  1 26 22  0  0.0  .656661577523D-04  .272848410532D-11  .000000000000D+00
     .830000000000D+02 -.276875000000D+02  .465697969618D-08 -.226780324482D+00
    -.155530869961D-05  .206667406019D-02  .644475221634D-06  .515359516525D+04
     .597600000000D+06 -.111758708954D-07 -.131396314016D+01  .670552253723D-07
     .971270249853D+00  .370125000000D+03  .565684186743D+00 -.850714007082D-08
    -.206794328100D-09  .100000000000D+01  .172400000000D+04  .000000000000D+00
     .240000000000D+01  .000000000000D+00  .512227416039D-08  .830000000000D+02
     .590406000000D+06  .400000000000D+01
27 13  1 26 22  0  0.0 -.191282015294D-03  .363797880709D-11  .000000000000D+00
     .330000000000D+02 -.300937500000D+02  .565380693232D-08 -.163016497446D+01
    -.152550637722D-05  .575256498996D-02  .108592212200D-05  .515362766457D+04
     .597600000000D+06  .150874257088D-06 -.129789890988D+01 -.596046447754D-07
     .976130423590D+00  .367562500000D+03  .840262225894D+00 -.824248618978D-08
    -.167149819604D-09  .100000000000D+01  .172400000000D+04  .000000000000D+00
     .240000000000D+01  .630000000000D+02 -.190921127796D-07  .330000000000D+02
     .590406000000D+06  .400000000000D+01
